ORBCOMM-X [-]           
1 21576U 91050C   24113.17071563  .00001401  00000+0  43621-3 0  9991
2 21576  98.3927 181.2913 0004158  36.5490 323.5983 14.42456791721625
ORBCOMM FM01 [-]        
1 23545U 95017A   24113.18443934  .00018478  00000+0  24655-2 0  9999
2 23545  69.9697  35.3888 0008689 247.2523 112.7708 14.79581137550369
ORBCOMM FM02 [-]        
1 23546U 95017B   24112.93774587  .00016080  00000+0  21696-2 0  9992
2 23546  69.9701  55.3831 0010477 243.3779 116.6297 14.79140162549626
ORBCOMM FM08 [-]        
1 25112U 97084A   24112.41984013  .00005155  00000+0  15853-2 0  9998
2 25112  45.0131 227.2512 0008573 270.4135  89.5733 14.42395202380405
ORBCOMM FM11 [+]        
1 25114U 97084C   24112.71983356  .00006050  00000+0  18602-2 0  9992
2 25114  45.0132 227.7128 0007526 246.6998 113.3060 14.42201120380566
ORBCOMM FM12 [-]        
1 25115U 97084D   24112.67915021  .00005469  00000+0  16876-2 0  9996
2 25115  45.0139 227.5967 0006483 246.0710 113.9461 14.42159959380350
ORBCOMM FM09 [-]        
1 25116U 97084E   24112.69001035  .00005463  00000+0  16867-2 0  9994
2 25116  45.0140 228.2262 0007694 235.7468 124.2654 14.42128497380564
